NORAD_CAT_ID,OBJECT_NAME,OBJECT_TYPE,EPOCH,MEAN_MOTION,ECCENTRICITY,INCLINATION,RA_OF_ASC_NODE,ARG_OF_PERICENTER,MEAN_ANOMALY,BSTAR,MEAN_MOTION_DOT,MEAN_MOTION_DDOT,TLE_LINE0,TLE_LINE1,TLE_LINE2,SEMIMAJOR_AXIS,PERIOD,APOGEE,PERIGEE,DECAYED
51785.0,STARLINK-3646,PAYLOAD,2022-06-28 06:00:00,15.08813089,0.0001611,53.2183,281.4738,54.7208,181.429,0.0019834,0.00031396,0.0,0 STARLINK-3646,1 51785U 22017T   22179.25001157  .00031396  00000-0  19834-2 0  9999,2 51785  53.2183 281.4738 0001611  54.7208 181.4290 15.08813089 20244,6917.9630000000025,95.439,540.942,538.7130000000002,0.0
51785.0,STARLINK-3646,PAYLOAD,2022-06-28 14:00:01,15.08824113,0.0001797,53.2182,279.9794,48.7815,198.9458,0.00014802,2.067e-05,0.0,0 STARLINK-3646,1 51785U 22017T   22179.58334491  .00002067  00000-0  14802-3 0  9999,2 51785  53.2182 279.9794 0001797  48.7815 198.9458 15.08824113  1304,6917.929,95.439,541.0369999999998,538.5509999999998,0.0
51785.0,STARLINK-3646,PAYLOAD,2022-06-28 22:00:00,15.08850266,0.0001734,53.2181,278.4825,47.6886,211.6118,-0.0020199,-0.000323,0.0,0 STARLINK-3646,1 51785U 22017T   22179.91667824 -.00032300  00000-0 -20199-2 0  9995,2 51785  53.2181 278.4825 0001734  47.6886 211.6118 15.08850266  1303,6917.849,95.437,540.914,538.514,0.0
51785.0,STARLINK-3646,PAYLOAD,2022-06-29 14:00:01,15.0883586,0.0001873,53.2183,275.4908,48.1908,234.2966,0.00044111,6.738e-05,0.0,0 STARLINK-3646,1 51785U 22017T   22180.58334491  .00006738  00000-0  44111-3 0  9996,2 51785  53.2183 275.4908 0001873  48.1908 234.2966 15.08835860 20440,6917.893,95.438,541.054,538.462,0.0
51785.0,STARLINK-3646,PAYLOAD,2022-06-29 22:00:00,15.08864319,0.0001793,53.2182,273.9937,47.5799,246.4971,-0.0021299,-0.00034049,0.0,0 STARLINK-3646,1 51785U 22017T   22180.91667824 -.00034049  00000-0 -21299-2 0  9991,2 51785  53.2182 273.9937 0001793  47.5799 246.4971 15.08864319  1302,6917.806,95.436,540.911,538.431,0.0
51785.0,STARLINK-3646,PAYLOAD,2022-06-30 14:00:01,15.08859365,0.0001889,53.2185,271.0021,46.8849,270.4115,-0.0017846,-0.00028593,0.0,0 STARLINK-3646,1 51785U 22017T   22181.58334491 -.00028593  00000-0 -17846-2 0  9996,2 51785  53.2185 271.0021 0001889  46.8849 270.4115 15.08859365  1304,6917.821,95.436,540.993,538.379,0.0
51785.0,STARLINK-3646,PAYLOAD,2022-06-30 22:00:00,15.08849275,0.0001749,53.2184,269.5048,45.4697,283.4337,-0.0021487,-0.00034331,0.0,0 STARLINK-3646,1 51785U 22017T   22181.91667824 -.00034331  00000-0 -21487-2 0  9995,2 51785  53.2184 269.5048 0001749  45.4697 283.4337 15.08849275  1304,6917.852,95.437,540.927,538.507,0.0
51785.0,STARLINK-3646,PAYLOAD,2022-07-01 14:00:01,15.08831887,0.0001871,53.2185,266.5134,45.5648,306.5261,0.00084813,0.00013233,0.0,0 STARLINK-3646,1 51785U 22017T   22182.58334491  .00013233  00000-0  84813-3 0  9999,2 51785  53.2185 266.5134 0001871  45.5648 306.5261 15.08831887  1304,6917.905,95.438,541.065,538.476,0.0
51785.0,STARLINK-3646,PAYLOAD,2022-07-01 22:00:00,15.08857651,0.0001754999999999,53.2183,265.0159,46.3809,317.2983,-0.0020315,-0.0003249,0.0,0 STARLINK-3646,1 51785U 22017T   22182.91667824 -.00032490  00000-0 -20315-2 0  9999,2 51785  53.2183 265.0159 0001755  46.3809 317.2983 15.08857651  1309,6917.826,95.436,540.906,538.477,0.0
51785.0,STARLINK-3646,PAYLOAD,2022-07-02 14:00:01,15.08842766,0.0001874,53.2183,262.0246,46.004,340.8882,0.00067693,0.00010503,0.0,0 STARLINK-3646,1 51785U 22017T   22183.58334491  .00010503  00000-0  67693-3 0  9994,2 51785  53.2183 262.0246 0001874  46.0040 340.8882 15.08842766  1300,6917.871999999999,95.437,541.033,538.441,0.0
51785.0,STARLINK-3646,PAYLOAD,2022-07-02 22:00:00,15.08869166,0.0001795,53.2179,260.5269,48.9431,349.5677,-0.0032505,-0.00051691,0.0,0 STARLINK-3646,1 51785U 22017T   22183.91667824 -.00051691  00000-0 -32505-2 0  9998,2 51785  53.2179 260.5269 0001795  48.9431 349.5677 15.08869166  1301,6917.791,95.436,540.898,538.414,0.0
51785.0,STARLINK-3646,PAYLOAD,2022-07-03 14:00:01,15.08843922,0.0001879,53.2177,257.5357,47.1207,14.5971,-0.0011959,-0.00019273,0.0,0 STARLINK-3646,1 51785U 22017T   22184.58334491 -.00019273  00000-0 -11959-2 0  9993,2 51785  53.2177 257.5357 0001879  47.1207  14.5971 15.08843922 21049,6917.868,95.437,541.033,538.434,0.0
51785.0,STARLINK-3646,PAYLOAD,2022-07-03 22:00:00,15.088251199999998,0.0001692,53.2174,256.0378,48.6657,24.6441,-0.0011140999999999,-0.00017968,0.0,0 STARLINK-3646,1 51785U 22017T   22184.91667824 -.00017968  00000-0 -11141-2 0  9991,2 51785  53.2174 256.0378 0001692  48.6657  24.6441 15.08825120  1302,6917.926,95.438,540.961,538.62,0.0
51785.0,STARLINK-3646,PAYLOAD,2022-07-04 14:00:01,15.08806453,0.0001823,53.2172,253.0468,46.298,50.1601,0.0019743,0.00031244,0.0,0 STARLINK-3646,1 51785U 22017T   22185.58334491  .00031244  00000-0  19743-2 0  9993,2 51785  53.2172 253.0468 0001823  46.2980  50.1601 15.08806453  1306,6917.983,95.44,541.109,538.587,0.0
51785.0,STARLINK-3646,PAYLOAD,2022-07-04 22:00:00,15.0883288,0.0001699,53.2169,251.5489,49.4892,58.5435,-0.00055187,-9.059e-05,0.0,0 STARLINK-3646,1 51785U 22017T   22185.91667824 -.00009059  00000-0 -55187-3 0  9993,2 51785  53.2169 251.5489 0001699  49.4892  58.5435 15.08832880 21241,6917.901999999999,95.438,540.943,538.592,0.0
51785.0,STARLINK-3646,PAYLOAD,2022-07-05 14:00:01,15.08816736,0.0001862,53.2169,248.5577,45.9609,85.2505,0.0025944,0.00041218,0.0,0 STARLINK-3646,1 51785U 22017T   22186.58334491  .00041218  00000-0  25944-2 0  9996,2 51785  53.2169 248.5577 0001862  45.9609  85.2505 15.08816736  1306,6917.951,95.439,541.105,538.528,0.0
51785.0,STARLINK-3646,PAYLOAD,2022-07-05 22:00:00,15.08838592,0.0001735,53.2168,247.0597,49.2583,93.5375,-0.00024082,-4.119e-05,0.0,0 STARLINK-3646,1 51785U 22017T   22186.91667824 -.00004119  00000-0 -24082-3 0  9996,2 51785  53.2168 247.0597 0001735  49.2583  93.5375 15.08838592 21390,6917.885,95.438,540.95,538.549,0.0
51785.0,STARLINK-3646,PAYLOAD,2022-07-06 14:00:01,15.08821162,0.0001934,53.217,244.0685,45.2222,120.7712,0.0028708,0.00045674,0.0,0 STARLINK-3646,1 51785U 22017T   22187.58334491  .00045674  00000-0  28708-2 0  9998,2 51785  53.2170 244.0685 0001934  45.2222 120.7712 15.08821162  1307,6917.938,95.439,541.141,538.465,0.0
51785.0,STARLINK-3646,PAYLOAD,2022-07-06 22:00:00,15.08849309,0.000175,53.2172,242.5704,47.5901,129.9993,-0.0025886,-0.00041261,0.0,0 STARLINK-3646,1 51785U 22017T   22187.91667824 -.00041261  00000-0 -25886-2 0  9998,2 51785  53.2172 242.5704 0001750  47.5901 129.9993 15.08849309  1304,6917.852,95.437,540.928,538.506,0.0
51785.0,STARLINK-3646,PAYLOAD,2022-07-07 03:34:31,15.0884212,0.0001844,53.2185,241.5279,50.40600000000001,309.7095,0.00010396,1.367e-05,0.0,0 STARLINK-3646,1 51785U 22017T   22188.14897915  .00001367  00000-0  10396-3 0  9992,2 51785  53.2185 241.5279 0001844  50.4060 309.7095 15.08842120 21584,6917.874,95.437,541.015,538.4630000000002,0.0
51785.0,STARLINK-3646,PAYLOAD,2022-07-07 14:00:01,15.08803376,0.0001948,53.2175,239.5793,42.6789,158.0867,0.0030996,0.00049339,0.0,0 STARLINK-3646,1 51785U 22017T   22188.58334491  .00049339  00000-0  30996-2 0  9993,2 51785  53.2175 239.5793 0001948  42.6789 158.0867 15.08803376 21657,6917.9919999999975,95.44,541.205,538.51,0.0
51785.0,STARLINK-3646,PAYLOAD,2022-07-07 21:03:47,15.08834422,0.0001861,53.2185,238.2572,49.9386,310.1769,-6.7011e-06,-3.95e-06,0.0,0 STARLINK-3646,1 51785U 22017T   22188.87763031 -.00000395  00000-0 -67011-5 0  9993,2 51785  53.2185 238.2572 0001861  49.9386 310.1769 15.08834422 20002,6917.897,95.438,541.05,538.475,0.0
51785.0,STARLINK-3646,PAYLOAD,2022-07-08 06:00:02,15.0885054,0.0001852,53.218,236.5848,48.8215,175.16299999999995,-0.001286,-0.00020703,0.0,0 STARLINK-3646,1 51785U 22017T   22189.25002315 -.00020703  00000-0 -12860-2 0  9991,2 51785  53.2180 236.5848 0001852  48.8215 175.1630 15.08850540 21751,6917.848000000001,95.437,540.994,538.432,0.0
51785.0,STARLINK-3646,PAYLOAD,2022-07-08 12:57:37,15.08844125,0.0001839,53.2185,235.2831,47.9676,312.1472,3.3636e-05,2.47e-06,0.0,0 STARLINK-3646,1 51785U 22017T   22189.54002248  .00000247  00000-0  33636-4 0  9993,2 51785  53.2185 235.2831 0001839  47.9676 312.1472 15.08844125 21793,6917.868,95.437,541.005,538.461,0.0
51785.0,STARLINK-3646,PAYLOAD,2022-07-08 22:00:01,15.08851682,0.0001866,53.2181,233.592,47.8182,199.3985,0.00093557,0.00014638,0.0,0 STARLINK-3646,1 51785U 22017T   22189.91668981  .00014638  00000-0  93557-3 0  9992,2 51785  53.2181 233.5920 0001866  47.8182 199.3985 15.08851682  1305,6917.845,95.437,541.001,538.419,0.0
51785.0,STARLINK-3646,PAYLOAD,2022-07-09 08:00:01,15.08850014,0.000189,53.218,231.7211,43.8238,307.8033,-0.0022475,-0.0003589,0.0,0 STARLINK-3646,1 51785U 22017T   22190.33334491 -.00035890  00000-0 -22475-2 0  9991,2 51785  53.2180 231.7211 0001890  43.8238 307.8033 15.08850014 21919,6917.85,95.437,541.0219999999998,538.4069999999998,0.0
51785.0,STARLINK-3646,PAYLOAD,2022-07-09 14:00:01,15.08813712,0.0001947,53.2179,230.6013,40.6724,229.6482,0.0026264,0.00041729,0.0,0 STARLINK-3646,1 51785U 22017T   22190.58334491  .00041729  00000-0  26264-2 0  9994,2 51785  53.2179 230.6013 0001947  40.6724 229.6482 15.08813712  1307,6917.9609999999975,95.439,541.173,538.479,0.0
51785.0,STARLINK-3646,PAYLOAD,2022-07-09 20:00:01,15.08841872,0.0001795,53.2181,229.4777,44.1729,144.8312,-0.0011408,-0.00018399,0.0,0 STARLINK-3646,1 51785U 22017T   22190.83334491 -.00018399  00000-0 -11408-2 0  9995,2 51785  53.2181 229.4777 0001795  44.1729 144.8312 15.08841872  1306,6917.875,95.437,540.981,538.498,0.0
51785.0,STARLINK-3646,PAYLOAD,2022-07-10 14:00:01,15.08825201,0.0001939,53.2175,226.1125,41.0986,263.9896,0.0020096,0.00031827,0.0,0 STARLINK-3646,1 51785U 22017T   22191.58334491  .00031827  00000-0  20096-2 0  9990,2 51785  53.2175 226.1125 0001939  41.0986 263.9896 15.08825201  1309,6917.926,95.438,541.132,538.4490000000002,0.0
